CCSDS_OMM_VERS = 2.0
CREATION_DATE  = 
ORIGINATOR     = 

OBJECT_NAME    = SL-14 R/B
OBJECT_ID      = 1986-046B
CENTER_NAME    = EARTH
REF_FRAME      = TEME
TIME_SYSTEM    = UTC
MEAN_ELEMENT_THEORY = SGP/SGP4

EPOCH          = 2025-12-03T14:54:06.827040
MEAN_MOTION    = 14.85469081
ECCENTRICITY   = .00230262
INCLINATION    = 82.4812
RA_OF_ASC_NODE = 170.9260
ARG_OF_PERICENTER = 181.9579
MEAN_ANOMALY   = 178.1551

EPHEMERIS_TYPE = 0
CLASSIFICATION_TYPE = U
NORAD_CAT_ID   = 16792
ELEMENT_SET_NO = 999
REV_AT_EPOCH   = 11214
BSTAR          = .85704588E-4
MEAN_MOTION_DOT = .767E-5
MEAN_MOTION_DDOT = 0

CCSDS_OMM_VERS = 2.0
CREATION_DATE  = 
ORIGINATOR     = 

OBJECT_NAME    = SL-14 R/B
OBJECT_ID      = 1986-055B
CENTER_NAME    = EARTH
REF_FRAME      = TEME
TIME_SYSTEM    = UTC
MEAN_ELEMENT_THEORY = SGP/SGP4

EPOCH          = 2025-12-03T21:26:41.612352
MEAN_MOTION    = 14.85517631
ECCENTRICITY   = .00175802
INCLINATION    = 82.5212
RA_OF_ASC_NODE = 216.6844
ARG_OF_PERICENTER = 291.2200
MEAN_ANOMALY   = 154.9101

EPHEMERIS_TYPE = 0
CLASSIFICATION_TYPE = U
NORAD_CAT_ID   = 16882
ELEMENT_SET_NO = 999
REV_AT_EPOCH   = 10514
BSTAR          = .10452894E-3
MEAN_MOTION_DOT = .928E-5
MEAN_MOTION_DDOT = 0

CCSDS_OMM_VERS = 2.0
CREATION_DATE  = 
ORIGINATOR     = 

OBJECT_NAME    = AJISAI (EGS)
OBJECT_ID      = 1986-061A
CENTER_NAME    = EARTH
REF_FRAME      = TEME
TIME_SYSTEM    = UTC
MEAN_ELEMENT_THEORY = SGP/SGP4

EPOCH          = 2025-12-03T21:43:00.546816
MEAN_MOTION    = 12.44514163
ECCENTRICITY   = .00112677
INCLINATION    = 50.0113
RA_OF_ASC_NODE = 27.8836
ARG_OF_PERICENTER = 43.7449
MEAN_ANOMALY   = 5.8665

EPHEMERIS_TYPE = 0
CLASSIFICATION_TYPE = U
NORAD_CAT_ID   = 16908
ELEMENT_SET_NO = 999
REV_AT_EPOCH   = 45607
BSTAR          = .71224429E-4
MEAN_MOTION_DOT = -.87E-6
MEAN_MOTION_DDOT = 0

CCSDS_OMM_VERS = 2.0
CREATION_DATE  = 
ORIGINATOR     = 

OBJECT_NAME    = COSMOS 1812
OBJECT_ID      = 1987-003A
CENTER_NAME    = EARTH
REF_FRAME      = TEME
TIME_SYSTEM    = UTC
MEAN_ELEMENT_THEORY = SGP/SGP4

EPOCH          = 2025-12-03T23:01:27.216192
MEAN_MOTION    = 15.73330723
ECCENTRICITY   = .0007088
INCLINATION    = 82.4869
RA_OF_ASC_NODE = 301.5059
ARG_OF_PERICENTER = 97.5199
MEAN_ANOMALY   = 262.6870

EPHEMERIS_TYPE = 0
CLASSIFICATION_TYPE = U
NORAD_CAT_ID   = 17295
ELEMENT_SET_NO = 999
REV_AT_EPOCH   = 12927
BSTAR          = .98309274E-3
MEAN_MOTION_DOT = .137739E-2
MEAN_MOTION_DDOT = 0

CCSDS_OMM_VERS = 2.0
CREATION_DATE  = 
ORIGINATOR     = 

OBJECT_NAME    = SL-14 R/B
OBJECT_ID      = 1987-024B
CENTER_NAME    = EARTH
REF_FRAME      = TEME
TIME_SYSTEM    = UTC
MEAN_ELEMENT_THEORY = SGP/SGP4

EPOCH          = 2025-12-03T19:46:18.172416
MEAN_MOTION    = 14.86010409
ECCENTRICITY   = .0017352
INCLINATION    = 82.5280
RA_OF_ASC_NODE = 182.8300
ARG_OF_PERICENTER = 214.6488
MEAN_ANOMALY   = 145.3600

EPHEMERIS_TYPE = 0
CLASSIFICATION_TYPE = U
NORAD_CAT_ID   = 17567
ELEMENT_SET_NO = 999
REV_AT_EPOCH   = 7389
BSTAR          = .96137239E-4
MEAN_MOTION_DOT = .866E-5
MEAN_MOTION_DDOT = 0

CCSDS_OMM_VERS = 2.0
CREATION_DATE  = 
ORIGINATOR     = 

OBJECT_NAME    = COSMOS 1833
OBJECT_ID      = 1987-027A
CENTER_NAME    = EARTH
REF_FRAME      = TEME
TIME_SYSTEM    = UTC
MEAN_ELEMENT_THEORY = SGP/SGP4

EPOCH          = 2025-12-03T22:33:07.915680
MEAN_MOTION    = 14.13018721
ECCENTRICITY   = .00221547
INCLINATION    = 70.9129
RA_OF_ASC_NODE = 167.2768
ARG_OF_PERICENTER = 344.1061
MEAN_ANOMALY   = 15.9362

EPHEMERIS_TYPE = 0
CLASSIFICATION_TYPE = U
NORAD_CAT_ID   = 17589
ELEMENT_SET_NO = 999
REV_AT_EPOCH   = 99678
BSTAR          = .62440995E-4
MEAN_MOTION_DOT = .69E-6
MEAN_MOTION_DDOT = 0

CCSDS_OMM_VERS = 2.0
CREATION_DATE  = 
ORIGINATOR     = 

OBJECT_NAME    = SL-16 R/B
OBJECT_ID      = 1987-027B
CENTER_NAME    = EARTH
REF_FRAME      = TEME
TIME_SYSTEM    = UTC
MEAN_ELEMENT_THEORY = SGP/SGP4

EPOCH          = 2025-12-03T20:06:55.359072
MEAN_MOTION    = 14.17152454
ECCENTRICITY   = .0007525
INCLINATION    = 71.0021
RA_OF_ASC_NODE = 118.4747
ARG_OF_PERICENTER = 269.0883
MEAN_ANOMALY   = 90.9379

EPHEMERIS_TYPE = 0
CLASSIFICATION_TYPE = U
NORAD_CAT_ID   = 17590
ELEMENT_SET_NO = 999
REV_AT_EPOCH   = 176
BSTAR          = .31556897E-4
MEAN_MOTION_DOT = .16E-6
MEAN_MOTION_DDOT = 0

CCSDS_OMM_VERS = 2.0
CREATION_DATE  = 
ORIGINATOR     = 

OBJECT_NAME    = SL-14 R/B
OBJECT_ID      = 1987-038B
CENTER_NAME    = EARTH
REF_FRAME      = TEME
TIME_SYSTEM    = UTC
MEAN_ELEMENT_THEORY = SGP/SGP4

EPOCH          = 2025-12-03T15:14:08.445408
MEAN_MOTION    = 14.85247798
ECCENTRICITY   = .00206324
INCLINATION    = 82.5025
RA_OF_ASC_NODE = 27.2763
ARG_OF_PERICENTER = 120.0711
MEAN_ANOMALY   = 240.2555

EPHEMERIS_TYPE = 0
CLASSIFICATION_TYPE = U
NORAD_CAT_ID   = 17912
ELEMENT_SET_NO = 999
REV_AT_EPOCH   = 6497
BSTAR          = .80965862E-4
MEAN_MOTION_DOT = .721E-5
MEAN_MOTION_DDOT = 0

CCSDS_OMM_VERS = 2.0
CREATION_DATE  = 
ORIGINATOR     = 

OBJECT_NAME    = COSMOS 1844
OBJECT_ID      = 1987-041A
CENTER_NAME    = EARTH
REF_FRAME      = TEME
TIME_SYSTEM    = UTC
MEAN_ELEMENT_THEORY = SGP/SGP4

EPOCH          = 2025-12-03T22:25:52.706784
MEAN_MOTION    = 14.14527766
ECCENTRICITY   = .00303765
INCLINATION    = 70.8988
RA_OF_ASC_NODE = 236.1422
ARG_OF_PERICENTER = 171.1433
MEAN_ANOMALY   = 189.0231

EPHEMERIS_TYPE = 0
CLASSIFICATION_TYPE = U
NORAD_CAT_ID   = 17973
ELEMENT_SET_NO = 999
REV_AT_EPOCH   = 99004
BSTAR          = -.27715948E-4
MEAN_MOTION_DOT = -.102E-5
MEAN_MOTION_DDOT = 0

CCSDS_OMM_VERS = 2.0
CREATION_DATE  = 
ORIGINATOR     = 

OBJECT_NAME    = SL-14 R/B
OBJECT_ID      = 1987-055B
CENTER_NAME    = EARTH
REF_FRAME      = TEME
TIME_SYSTEM    = UTC
MEAN_ELEMENT_THEORY = SGP/SGP4

EPOCH          = 2025-12-03T18:18:44.753472
MEAN_MOTION    = 14.85505742
ECCENTRICITY   = .00199893
INCLINATION    = 82.5000
RA_OF_ASC_NODE = 79.4476
ARG_OF_PERICENTER = 334.5129
MEAN_ANOMALY   = 25.5099

EPHEMERIS_TYPE = 0
CLASSIFICATION_TYPE = U
NORAD_CAT_ID   = 18153
ELEMENT_SET_NO = 999
REV_AT_EPOCH   = 5569
BSTAR          = .92471187E-4
MEAN_MOTION_DOT = .825E-5
MEAN_MOTION_DDOT = 0

CCSDS_OMM_VERS = 2.0
CREATION_DATE  = 
ORIGINATOR     = 

OBJECT_NAME    = SL-14 R/B
OBJECT_ID      = 1988-001B
CENTER_NAME    = EARTH
REF_FRAME      = TEME
TIME_SYSTEM    = UTC
MEAN_ELEMENT_THEORY = SGP/SGP4

EPOCH          = 2025-12-03T21:16:51.769920
MEAN_MOTION    = 14.85409239
ECCENTRICITY   = .0017671
INCLINATION    = 82.5125
RA_OF_ASC_NODE = 285.4744
ARG_OF_PERICENTER = 190.2666
MEAN_ANOMALY   = 169.8192

EPHEMERIS_TYPE = 0
CLASSIFICATION_TYPE = U
NORAD_CAT_ID   = 18749
ELEMENT_SET_NO = 999
REV_AT_EPOCH   = 2780
BSTAR          = .11059591E-3
MEAN_MOTION_DOT = .979E-5
MEAN_MOTION_DDOT = 0

